CCSDS_OMM_VERS = 2.0
CREATION_DATE  = 
ORIGINATOR     = 

OBJECT_NAME    = SL-3 R/B
OBJECT_ID      = 1982-039B
CENTER_NAME    = EARTH
REF_FRAME      = TEME
TIME_SYSTEM    = UTC
MEAN_ELEMENT_THEORY = SGP/SGP4

EPOCH          = 2025-11-03T17:24:05.577120
MEAN_MOTION    = 15.09207145
ECCENTRICITY   = .0032696
INCLINATION    = 81.1827
RA_OF_ASC_NODE = 0.9506
ARG_OF_PERICENTER = 19.0555
MEAN_ANOMALY   = 341.1884

EPHEMERIS_TYPE = 0
CLASSIFICATION_TYPE = U
NORAD_CAT_ID   = 13154
ELEMENT_SET_NO = 999
REV_AT_EPOCH   = 36263
BSTAR          = .15789E-3
MEAN_MOTION_DOT = .2564E-4
MEAN_MOTION_DDOT = 0

CCSDS_OMM_VERS = 2.0
CREATION_DATE  = 
ORIGINATOR     = 

OBJECT_NAME    = SL-3 R/B
OBJECT_ID      = 1982-079B
CENTER_NAME    = EARTH
REF_FRAME      = TEME
TIME_SYSTEM    = UTC
MEAN_ELEMENT_THEORY = SGP/SGP4

EPOCH          = 2025-11-03T19:02:23.451936
MEAN_MOTION    = 15.22979070
ECCENTRICITY   = .0024739
INCLINATION    = 81.1477
RA_OF_ASC_NODE = 341.5544
ARG_OF_PERICENTER = 229.1659
MEAN_ANOMALY   = 130.7429

EPHEMERIS_TYPE = 0
CLASSIFICATION_TYPE = U
NORAD_CAT_ID   = 13403
ELEMENT_SET_NO = 999
REV_AT_EPOCH   = 35852
BSTAR          = .23893E-3
MEAN_MOTION_DOT = .5687E-4
MEAN_MOTION_DDOT = 0

CCSDS_OMM_VERS = 2.0
CREATION_DATE  = 
ORIGINATOR     = 

OBJECT_NAME    = SL-14 R/B
OBJECT_ID      = 1982-092B
CENTER_NAME    = EARTH
REF_FRAME      = TEME
TIME_SYSTEM    = UTC
MEAN_ELEMENT_THEORY = SGP/SGP4

EPOCH          = 2025-11-02T08:53:05.363808
MEAN_MOTION    = 14.86482968
ECCENTRICITY   = .0020682
INCLINATION    = 82.5665
RA_OF_ASC_NODE = 260.4644
ARG_OF_PERICENTER = 8.4269
MEAN_ANOMALY   = 106.4502

EPHEMERIS_TYPE = 0
CLASSIFICATION_TYPE = U
NORAD_CAT_ID   = 13553
ELEMENT_SET_NO = 999
REV_AT_EPOCH   = 31001
BSTAR          = .87806E-4
MEAN_MOTION_DOT = .803E-5
MEAN_MOTION_DDOT = 0

CCSDS_OMM_VERS = 2.0
CREATION_DATE  = 
ORIGINATOR     = 

OBJECT_NAME    = SL-3 R/B
OBJECT_ID      = 1983-010B
CENTER_NAME    = EARTH
REF_FRAME      = TEME
TIME_SYSTEM    = UTC
MEAN_ELEMENT_THEORY = SGP/SGP4

EPOCH          = 2025-11-02T00:56:15.285120
MEAN_MOTION    = 15.42004236
ECCENTRICITY   = .00182419
INCLINATION    = 81.1040
RA_OF_ASC_NODE = 158.2434
ARG_OF_PERICENTER = 128.4343
MEAN_ANOMALY   = 231.8540

EPHEMERIS_TYPE = 0
CLASSIFICATION_TYPE = U
NORAD_CAT_ID   = 13819
ELEMENT_SET_NO = 999
REV_AT_EPOCH   = 33824
BSTAR          = .29829206E-3
MEAN_MOTION_DOT = .12825E-3
MEAN_MOTION_DDOT = 0

CCSDS_OMM_VERS = 2.0
CREATION_DATE  = 
ORIGINATOR     = 

OBJECT_NAME    = SL-3 R/B
OBJECT_ID      = 1983-075B
CENTER_NAME    = EARTH
REF_FRAME      = TEME
TIME_SYSTEM    = UTC
MEAN_ELEMENT_THEORY = SGP/SGP4

EPOCH          = 2025-11-03T18:05:37.914720
MEAN_MOTION    = 15.34987290
ECCENTRICITY   = .0022077
INCLINATION    = 97.6096
RA_OF_ASC_NODE = 302.9625
ARG_OF_PERICENTER = 324.1831
MEAN_ANOMALY   = 35.7930

EPHEMERIS_TYPE = 0
CLASSIFICATION_TYPE = U
NORAD_CAT_ID   = 14208
ELEMENT_SET_NO = 999
REV_AT_EPOCH   = 31081
BSTAR          = .37072E-3
MEAN_MOTION_DOT = .12602E-3
MEAN_MOTION_DDOT = 0

CCSDS_OMM_VERS = 2.0
CREATION_DATE  = 
ORIGINATOR     = 

OBJECT_NAME    = COSMOS 1536
OBJECT_ID      = 1984-013A
CENTER_NAME    = EARTH
REF_FRAME      = TEME
TIME_SYSTEM    = UTC
MEAN_ELEMENT_THEORY = SGP/SGP4

EPOCH          = 2025-11-03T19:47:18.668832
MEAN_MOTION    = 15.21799767
ECCENTRICITY   = .0015902
INCLINATION    = 82.5468
RA_OF_ASC_NODE = 232.7313
ARG_OF_PERICENTER = 13.4909
MEAN_ANOMALY   = 346.6748

EPHEMERIS_TYPE = 0
CLASSIFICATION_TYPE = U
NORAD_CAT_ID   = 14699
ELEMENT_SET_NO = 999
REV_AT_EPOCH   = 25346
BSTAR          = .3602E-3
MEAN_MOTION_DOT = .8235E-4
MEAN_MOTION_DDOT = 0

CCSDS_OMM_VERS = 2.0
CREATION_DATE  = 
ORIGINATOR     = 

OBJECT_NAME    = SL-14 R/B
OBJECT_ID      = 1984-027B
CENTER_NAME    = EARTH
REF_FRAME      = TEME
TIME_SYSTEM    = UTC
MEAN_ELEMENT_THEORY = SGP/SGP4

EPOCH          = 2025-11-02T10:03:06.706368
MEAN_MOTION    = 14.85812305
ECCENTRICITY   = .0018936
INCLINATION    = 82.5441
RA_OF_ASC_NODE = 4.3665
ARG_OF_PERICENTER = 39.0719
MEAN_ANOMALY   = 321.1861

EPHEMERIS_TYPE = 0
CLASSIFICATION_TYPE = U
NORAD_CAT_ID   = 14820
ELEMENT_SET_NO = 999
REV_AT_EPOCH   = 22873
BSTAR          = .62925E-4
MEAN_MOTION_DOT = .573E-5
MEAN_MOTION_DDOT = 0

CCSDS_OMM_VERS = 2.0
CREATION_DATE  = 
ORIGINATOR     = 

OBJECT_NAME    = SL-8 R/B
OBJECT_ID      = 1985-006B
CENTER_NAME    = EARTH
REF_FRAME      = TEME
TIME_SYSTEM    = UTC
MEAN_ELEMENT_THEORY = SGP/SGP4

EPOCH          = 2025-11-03T18:35:56.951808
MEAN_MOTION    = 14.37685168
ECCENTRICITY   = .0017486
INCLINATION    = 74.0429
RA_OF_ASC_NODE = 132.8215
ARG_OF_PERICENTER = 78.1400
MEAN_ANOMALY   = 292.9501

EPHEMERIS_TYPE = 0
CLASSIFICATION_TYPE = U
NORAD_CAT_ID   = 15483
ELEMENT_SET_NO = 999
REV_AT_EPOCH   = 13593
BSTAR          = .11222E-3
MEAN_MOTION_DOT = .312E-5
MEAN_MOTION_DDOT = 0

CCSDS_OMM_VERS = 2.0
CREATION_DATE  = 
ORIGINATOR     = 

OBJECT_NAME    = SL-12 R/B(2)
OBJECT_ID      = 1985-042D
CENTER_NAME    = EARTH
REF_FRAME      = TEME
TIME_SYSTEM    = UTC
MEAN_ELEMENT_THEORY = SGP/SGP4

EPOCH          = 2025-11-03T13:57:57.482784
MEAN_MOTION    = 14.21932930
ECCENTRICITY   = .003684
INCLINATION    = 71.1094
RA_OF_ASC_NODE = 354.1471
ARG_OF_PERICENTER = 319.0418
MEAN_ANOMALY   = 202.7286

EPHEMERIS_TYPE = 0
CLASSIFICATION_TYPE = U
NORAD_CAT_ID   = 15772
ELEMENT_SET_NO = 999
REV_AT_EPOCH   = 9646
BSTAR          = .61529E-4
MEAN_MOTION_DOT = .89E-6
MEAN_MOTION_DDOT = 0

CCSDS_OMM_VERS = 2.0
CREATION_DATE  = 
ORIGINATOR     = 

OBJECT_NAME    = SL-14 R/B
OBJECT_ID      = 1985-069B
CENTER_NAME    = EARTH
REF_FRAME      = TEME
TIME_SYSTEM    = UTC
MEAN_ELEMENT_THEORY = SGP/SGP4

EPOCH          = 2025-11-03T18:55:28.587648
MEAN_MOTION    = 14.86254858
ECCENTRICITY   = .0017389
INCLINATION    = 82.5251
RA_OF_ASC_NODE = 143.3233
ARG_OF_PERICENTER = 247.9878
MEAN_ANOMALY   = 111.9491

EPHEMERIS_TYPE = 0
CLASSIFICATION_TYPE = U
NORAD_CAT_ID   = 15945
ELEMENT_SET_NO = 999
REV_AT_EPOCH   = 15413
BSTAR          = .62541E-4
MEAN_MOTION_DOT = .575E-5
MEAN_MOTION_DDOT = 0

CCSDS_OMM_VERS = 2.0
CREATION_DATE  = 
ORIGINATOR     = 

OBJECT_NAME    = SL-16 R/B
OBJECT_ID      = 1985-097B
CENTER_NAME    = EARTH
REF_FRAME      = TEME
TIME_SYSTEM    = UTC
MEAN_ELEMENT_THEORY = SGP/SGP4

EPOCH          = 2025-11-03T13:53:57.435936
MEAN_MOTION    = 14.16576795
ECCENTRICITY   = .0005118
INCLINATION    = 71.0045
RA_OF_ASC_NODE = 46.0447
ARG_OF_PERICENTER = 87.0589
MEAN_ANOMALY   = 284.1881

EPHEMERIS_TYPE = 0
CLASSIFICATION_TYPE = U
NORAD_CAT_ID   = 16182
ELEMENT_SET_NO = 999
REV_AT_EPOCH   = 6937
BSTAR          = -.13025E-4
MEAN_MOTION_DOT = -.74E-6
MEAN_MOTION_DDOT = 0

CCSDS_OMM_VERS = 2.0
CREATION_DATE  = 
ORIGINATOR     = 

OBJECT_NAME    = SL-14 R/B
OBJECT_ID      = 1986-006B
CENTER_NAME    = EARTH
REF_FRAME      = TEME
TIME_SYSTEM    = UTC
MEAN_ELEMENT_THEORY = SGP/SGP4

EPOCH          = 2025-11-03T15:52:22.581408
MEAN_MOTION    = 14.86590031
ECCENTRICITY   = .0076052
INCLINATION    = 82.5298
RA_OF_ASC_NODE = 18.3155
ARG_OF_PERICENTER = 331.4981
MEAN_ANOMALY   = 28.2085

EPHEMERIS_TYPE = 0
CLASSIFICATION_TYPE = U
NORAD_CAT_ID   = 16496
ELEMENT_SET_NO = 999
REV_AT_EPOCH   = 13048
BSTAR          = .7382E-4
MEAN_MOTION_DOT = .715E-5
MEAN_MOTION_DDOT = 0

