SL-3 R/B                
1 13154U 82039B   25307.72506455  .00002564  00000+0  15789-3 0  9996
2 13154  81.1827   0.9506 0032696  19.0555 341.1884 15.09207145362637
SL-3 R/B                
1 13403U 82079B   25307.79332699  .00005687  00000+0  23893-3 0  9995
2 13403  81.1477 341.5544 0024739 229.1659 130.7429 15.22979070358527
SL-14 R/B               
1 13553U 82092B   25306.37020097  .00000803  00000+0  87806-4 0  9995
2 13553  82.5665 260.4644 0020682   8.4269 106.4502 14.86482968310013
SL-3 R/B                
1 13819U 83010B   25306.03906580  .00012825  00000+0  29829-3 0  9991
2 13819  81.1040 158.2434 0018241 128.4343 231.8540 15.42004236338246
SL-3 R/B                
1 14208U 83075B   25307.75391105  .00012602  00000+0  37072-3 0  9998
2 14208  97.6096 302.9625 0022077 324.1831  35.7930 15.34987290310819
COSMOS 1536             
1 14699U 84013A   25307.82452163  .00008235  00000+0  36020-3 0  9994
2 14699  82.5468 232.7313 0015902  13.4909 346.6748 15.21799767253460
SL-14 R/B               
1 14820U 84027B   25306.41882762  .00000573  00000+0  62925-4 0  9992
2 14820  82.5441   4.3665 0018936  39.0719 321.1861 14.85812305228732
SL-8 R/B                
1 15483U 85006B   25307.77496472  .00000312  00000+0  11222-3 0  9999
2 15483  74.0429 132.8215 0017486  78.1400 292.9501 14.37685168135935
SL-12 R/B(2)            
1 15772U 85042D   25307.58191531  .00000089  00000+0  61529-4 0  9994
2 15772  71.1094 354.1471 0036840 319.0418 202.7286 14.21932930 96464
SL-14 R/B               
1 15945U 85069B   25307.78852532  .00000575  00000+0  62541-4 0  9997
2 15945  82.5251 143.3233 0017389 247.9878 111.9491 14.86254858154132
SL-16 R/B               
1 16182U 85097B   25307.57913699 -.00000074  00000+0 -13025-4 0  9990
2 16182  71.0045  46.0447 0005118  87.0589 284.1881 14.16576795 69372
SL-14 R/B               
1 16496U 86006B   25307.66137247  .00000715  00000+0  73820-4 0  9995
2 16496  82.5298  18.3155 0076052 331.4981  28.2085 14.86590031130482
